STARLINK-33715          
1 63441C 25069J   26116.13729167 -.00004312  00000+0 -98866-4 0  1165
2 63441  53.1582 282.0231 0001295  80.3152 148.8876 15.42169455    13
STARLINK-33762          
1 63442C 25069K   26116.18243056  .00018764  00000+0  43036-3 0  1161
2 63442  53.1587 281.8130 0001170  74.0876  47.5740 15.42148214    14
STARLINK-33753          
1 63443C 25069L   26116.18312500  .00014779  00000+0  33880-3 0  1161
2 63443  53.1591 281.6718 0001348  78.7531 115.4335 15.42162698    13
STARLINK-33747          
1 63444C 25069M   26116.17618056 -.00017240  00000+0 -39569-3 0  1164
2 63444  53.1592 281.6121 0001309  78.3591 123.5325 15.42144692    15
STARLINK-33659          
1 63445C 25069N   26116.12340278 -.00102610  00000+0 -23531-2 0  1165
2 63445  53.1593 282.3497 0000952  71.5209 310.5006 15.42211991    16
STARLINK-33746          
1 63446C 25069P   26116.14840278 -.00080918  00000+0 -18559-2 0  1163
2 63446  53.1587 281.9394 0001664  76.6563 230.8019 15.42196295    18
STARLINK-33799          
1 63447C 25069Q   26116.13104167 -.00033834  00000+0 -11405-2 0  1161
2 63447  53.1586 282.3878 0001191  88.5999 297.1125 15.30203228    16
STARLINK-33797          
1 63448C 25069R   26116.14423611  .00000668  00000+0  15345-4 0  1167
2 63448  53.1594 281.7759 0001325  76.6297 301.0014 15.42114072    18
STARLINK-33798          
1 63449C 25069S   26116.13451389 -.00148110  00000+0 -33982-2 0  1162
2 63449  53.1595 282.2805 0001445  87.8584 357.5602 15.42218424    19
STARLINK-33736          
1 63450C 25069T   26116.16993056  .02639900  00000+0  62590-1 0  1167
2 63450  53.1595 281.6184 0001216  89.8711  87.7305 15.39851573    10
STARLINK-33740          
1 63451C 25069U   26116.15881944  .02693700  00000+0  74090-1 0  1165
2 63451  53.1591 281.9404 0001667  81.2847 257.2241 15.35288545    13
STARLINK-33763          
1 63452C 25069V   26116.15118056  .00006441  00000+0  14766-3 0  1167
2 63452  53.1595 281.6576 0001394  84.1013   8.6805 15.42168972    12
STARLINK-33784          
1 63453C 25069W   26116.13451389 -.00015890  00000+0 -53572-3 0  1163
2 63453  53.1588 282.3587 0001254  83.0883 327.5649 15.30189291    16
STARLINK-33768          
1 63454C 25069X   26116.17270833  .00013883  00000+0  31834-3 0  1166
2 63454  53.1591 281.6999 0001354  83.0441  54.7574 15.42157525    15
STARLINK-33761          
1 63455C 25069Y   26116.15048611  .02203500  00000+0  51677-1 0  1166
2 63455  53.1593 281.7820 0001425  79.2672 308.0792 15.40393990    17
STARLINK-33737          
1 63456C 25069Z   26116.12756944 -.00146170  00000+0 -33524-2 0  1160
2 63456  53.1591 281.9041 0001196  89.1231 160.3413 15.42231141    19
STARLINK-33795          
1 63457C 25069AA  26116.18104167 -.00010552  00000+0 -24203-3 0  1160
2 63457  53.1586 281.9086 0001162  85.5962 336.9659 15.42159264    15
STARLINK-33756          
1 63458C 25069AB  26116.15187500 -.00032108  00000+0 -73626-3 0  1164
2 63458  53.1590 282.0894 0001183  66.3800 167.5814 15.42179380    13
STARLINK-33780          
1 63459C 25069AC  26116.17062500  .00045551  00000+0  10448-2 0  1165
2 63459  53.1592 281.6976 0001954  90.1498  40.7273 15.42131581    18
STARLINK-33679          
1 63460C 25070A   26116.14631944  .00060145  00000+0  21799-2 0  1167
2 63460  43.0035 352.1069 0001397 281.3067 345.8436 15.27526546    16
STARLINK-33706          
1 63461C 25070B   26116.16645833  .00065832  00000+0  23834-2 0  1162
2 63461  43.0039 352.0120 0001246 290.3666  66.5193 15.27560684    14
STARLINK-33691          
1 63462C 25070C   26116.12548611  .00043925  00000+0  15923-2 0  1164
2 63462  43.0035 351.5659 0001735 272.8871 141.3771 15.27528250    15
STARLINK-33696          
1 63463C 25070D   26116.12340278  .00075100  00000+0  27180-2 0  1162
2 63463  43.0020 351.9180 0001546 273.5797 347.6946 15.27567257    13
STARLINK-33701          
1 63464C 25070E   26116.18451389  .00059268  00000+0  21476-2 0  1164
2 63464  43.0041 351.9597 0001505 275.3721 159.6363 15.27535661    19
STARLINK-33685          
1 63465C 25070F   26116.16368056  .00055925  00000+0  20269-2 0  1166
2 63465  43.0028 351.8394 0001527 276.3474 143.0180 15.27529960    18
STARLINK-33654          
1 63466C 25070G   26116.12756944  .00044527  00000+0  16138-2 0  1166
2 63466  43.0022 351.9078 0001356 271.0163   6.1282 15.27534864    11
STARLINK-33697          
1 63467C 25070H   26116.16298611  .00068017  00000+0  24664-2 0  1166
2 63467  43.0021 351.7563 0001658 273.7571 184.2190 15.27506798    16
STARLINK-33720          
1 63468C 25070J   26116.14354167  .00072653  00000+0  26332-2 0  1169
2 63468  43.0022 351.8690 0001311 273.1625  70.7016 15.27521620    17
STARLINK-33587          
1 63469C 25070K   26116.16368056  .00049901  00000+0  18085-2 0  1160
2 63469  43.0010 351.5488 0001498 276.0441 263.5840 15.27534196    10
STARLINK-33637          
1 63470C 25070L   26116.17062500  .00062115  00000+0  22516-2 0  1164
2 63470  43.0041 352.0866 0001448 271.6397  65.7027 15.27520855    14
STARLINK-33744          
1 63471C 25070M   26116.15673611  .00067873  00000+0  24603-2 0  1169
2 63471  43.0029 351.9600 0001475 272.2760  73.5266 15.27518050    12
STARLINK-33766          
1 63472C 25070N   26116.12409722  .00047651  00000+0  17274-2 0  1165
2 63472  43.0041 352.2668 0001380 265.3304 211.2180 15.27526474    12
STARLINK-33765          
1 63473C 25070P   26116.17618056  .00104360  00000+0  37653-2 0  1167
2 63473  43.0026 351.7319 0001560 262.7847 239.3978 15.27654469    18
STARLINK-33735          
1 63474C 25070Q   26116.14145833  .00038337  00000+0  13895-2 0  1165
2 63474  43.0021 351.6886 0001449 271.2407 138.9847 15.27536807    19
STARLINK-33731          
1 63475C 25070R   26116.17340278 -.00006129  00000+0 -22155-3 0  1165
2 63475  43.0042 352.0371 0001646 284.8880  81.8622 15.27647097    12
STARLINK-33718          
1 63476C 25070S   26116.13312500  .00039393  00000+0  14281-2 0  1166
2 63476  43.0038 351.5657 0001532 275.0751 160.0171 15.27530599    19
STARLINK-33630          
1 63477C 25070T   26116.12548611  .00046015  00000+0  16681-2 0  1165
2 63477  43.0018 348.3257 0001425 269.0840  43.4863 15.27527617    10
STARLINK-33695          
1 63478C 25070U   26116.15118056  .00039274  00000+0  14245-2 0  1168
2 63478  43.0014 348.0057 0001304 278.8313 246.0256 15.27514049    13
STARLINK-33713          
1 63479C 25070V   26116.17895833  .00048992  00000+0  17756-2 0  1163
2 63479  43.0016 347.8987 0001485 280.9569  15.5367 15.27532994    13
STARLINK-33721          
1 63480C 25070W   26116.15743056  .00046421  00000+0  16824-2 0  1162
2 63480  43.0019 348.0575 0001495 279.2990 244.5105 15.27534867    19
STARLINK-33639          
1 63481C 25070X   26116.14215278  .00059132  00000+0  21430-2 0  1164
2 63481  43.0028 348.3918 0001613 271.1713  62.4014 15.27529557    16
STARLINK-33688          
1 63483C 25070Z   26116.14562500  .00037881  00000+0  13729-2 0  1168
2 63483  43.0027 351.9370 0001547 275.8912  37.0271 15.27537815    16
STARLINK-33700          
1 63484C 25070AA  26116.14145833  .00036885  00000+0  13367-2 0  1166
2 63484  43.0022 351.7072 0001426 274.1066 121.9713 15.27542620    11
STARLINK-33687          
1 63485C 25070AB  26116.13520833  .00069803  00000+0  25305-2 0  1164
2 63485  43.0030 351.5482 0001569 277.2284 148.1522 15.27514241    15
STARLINK-33716          
1 63486C 25070AC  26116.16923611  .00062860  00000+0  22785-2 0  1164
2 63486  43.0013 351.4768 0001701 271.2266 313.1641 15.27521520    19
STARLINK-33754          
1 63487C 25070AD  26116.14701389  .00059945  00000+0  21707-2 0  1162
2 63487  43.0025 351.8632 0001435 272.6257  76.0955 15.27556099    18
STARLINK-33828          
1 63493C 25071A   26116.13381944  .00001946  00000+0  44638-4 0  1168
2 63493  53.1596 281.5779 0001534  82.4315 342.6605 15.42151186    12
STARLINK-33819          
1 63494C 25071B   26116.12618056 -.00013966  00000+0 -32049-3 0  1164
2 63494  53.1597 281.6079 0001208  82.0782 298.7918 15.42148146    10
STARLINK-33845          
1 63495C 25071C   26116.12618056 -.00014011  00000+0 -47237-3 0  1162
2 63495  53.1587 279.4314 0001216  85.3529 317.8536 15.30187051    15
STARLINK-33829          
1 63496C 25071D   26116.17826389  .00018993  00000+0  63935-3 0  1162
2 63496  53.1571 279.3616 0001343  88.7176 154.3119 15.30221323    11
STARLINK-33815          
1 63497C 25071E   26116.16923611 -.00013570  00000+0 -45746-3 0  1166
2 63497  53.1570 279.5978 0001260  85.8951   8.4925 15.30190480    14
STARLINK-33833          
1 63498C 25071F   26116.16854167 -.00080109  00000+0 -26988-2 0  1164
2 63498  53.1567 279.5077 0001027  92.3193  44.7418 15.30245517    15
STARLINK-33534          
1 63499C 25071G   26116.16229167 -.00006142  00000+0 -20707-3 0  1160
2 63499  53.1569 279.4909 0001101  84.3044  41.6109 15.30185400    17
STARLINK-33838          
1 63500C 25071H   26116.18798611  .00007252  00000+0  24451-3 0  1161
2 63500  53.1589 279.1865 0001171  92.2410 268.3647 15.30175618    17
STARLINK-33837          
1 63501C 25071J   26116.18243056  .00005294  00000+0  17850-3 0  1169
2 63501  53.1577 279.6047 0001195  89.7354  42.4802 15.30178646    14
STARLINK-33818          
1 63502C 25071K   26116.16576389 -.00006822  00000+0 -23000-3 0  1160
2 63502  53.1589 279.2556 0001218  84.9695 170.5961 15.30186562    15
STARLINK-33583          
1 63503C 25071L   26116.17270833 -.00041873  00000+0 -96013-3 0  1166
2 63503  53.1589 281.9466 0001342  64.8209 286.5753 15.42185485    15
STARLINK-33811          
1 63504C 25071M   26116.18659722 -.00013500  00000+0 -45519-3 0  1167
2 63504  53.1583 279.6401 0001297  91.0819  35.0336 15.30184664    10
STARLINK-33825          
1 63505C 25071N   26116.15187500 -.00027366  00000+0 -92260-3 0  1165
2 63505  53.1587 279.2150 0001110  93.3237 138.0505 15.30195696    14
